CCSDS_OMM_VERS = 2.0
CREATION_DATE  = 
ORIGINATOR     = 

OBJECT_NAME    = SL-14 R/B
OBJECT_ID      = 1986-046B
CENTER_NAME    = EARTH
REF_FRAME      = TEME
TIME_SYSTEM    = UTC
MEAN_ELEMENT_THEORY = SGP/SGP4

EPOCH          = 2026-02-10T04:35:49.718688
MEAN_MOTION    = 14.85563650
ECCENTRICITY   = .00221
INCLINATION    = 82.4812
RA_OF_ASC_NODE = 106.1685
ARG_OF_PERICENTER = 321.9791
MEAN_ANOMALY   = 37.9863

EPHEMERIS_TYPE = 0
CLASSIFICATION_TYPE = U
NORAD_CAT_ID   = 16792
ELEMENT_SET_NO = 999
REV_AT_EPOCH   = 12232
BSTAR          = .53448E-4
MEAN_MOTION_DOT = .488E-5
MEAN_MOTION_DDOT = 0

CCSDS_OMM_VERS = 2.0
CREATION_DATE  = 
ORIGINATOR     = 

OBJECT_NAME    = SL-14 R/B
OBJECT_ID      = 1986-055B
CENTER_NAME    = EARTH
REF_FRAME      = TEME
TIME_SYSTEM    = UTC
MEAN_ELEMENT_THEORY = SGP/SGP4

EPOCH          = 2026-02-09T19:03:01.603584
MEAN_MOTION    = 14.85613561
ECCENTRICITY   = .00202765
INCLINATION    = 82.5234
RA_OF_ASC_NODE = 152.8856
ARG_OF_PERICENTER = 66.5618
MEAN_ANOMALY   = 47.2760

EPHEMERIS_TYPE = 0
CLASSIFICATION_TYPE = U
NORAD_CAT_ID   = 16882
ELEMENT_SET_NO = 999
REV_AT_EPOCH   = 11522
BSTAR          = .72168841E-4
MEAN_MOTION_DOT = .651E-5
MEAN_MOTION_DDOT = 0

CCSDS_OMM_VERS = 2.0
CREATION_DATE  = 
ORIGINATOR     = 

OBJECT_NAME    = AJISAI (EGS)
OBJECT_ID      = 1986-061A
CENTER_NAME    = EARTH
REF_FRAME      = TEME
TIME_SYSTEM    = UTC
MEAN_ELEMENT_THEORY = SGP/SGP4

EPOCH          = 2026-02-10T04:01:17.830272
MEAN_MOTION    = 12.44515357
ECCENTRICITY   = .0011235
INCLINATION    = 50.0076
RA_OF_ASC_NODE = 177.9777
ARG_OF_PERICENTER = 216.0975
MEAN_ANOMALY   = 201.3855

EPHEMERIS_TYPE = 0
CLASSIFICATION_TYPE = U
NORAD_CAT_ID   = 16908
ELEMENT_SET_NO = 999
REV_AT_EPOCH   = 46457
BSTAR          = .81443E-4
MEAN_MOTION_DOT = -.86E-6
MEAN_MOTION_DDOT = 0

CCSDS_OMM_VERS = 2.0
CREATION_DATE  = 
ORIGINATOR     = 

OBJECT_NAME    = COSMOS 1812
OBJECT_ID      = 1987-003A
CENTER_NAME    = EARTH
REF_FRAME      = TEME
TIME_SYSTEM    = UTC
MEAN_ELEMENT_THEORY = SGP/SGP4

EPOCH          = 2026-02-10T01:21:55.338336
MEAN_MOTION    = 15.95920433
ECCENTRICITY   = .0001525
INCLINATION    = 82.4769
RA_OF_ASC_NODE = 226.9873
ARG_OF_PERICENTER = 316.7440
MEAN_ANOMALY   = 43.3715

EPHEMERIS_TYPE = 0
CLASSIFICATION_TYPE = U
NORAD_CAT_ID   = 17295
ELEMENT_SET_NO = 999
REV_AT_EPOCH   = 14004
BSTAR          = .7068E-3
MEAN_MOTION_DOT = .286107E-2
MEAN_MOTION_DDOT = .30727E-4

CCSDS_OMM_VERS = 2.0
CREATION_DATE  = 
ORIGINATOR     = 

OBJECT_NAME    = SL-14 R/B
OBJECT_ID      = 1987-024B
CENTER_NAME    = EARTH
REF_FRAME      = TEME
TIME_SYSTEM    = UTC
MEAN_ELEMENT_THEORY = SGP/SGP4

EPOCH          = 2026-02-10T04:01:24.951360
MEAN_MOTION    = 14.86105730
ECCENTRICITY   = .0018053
INCLINATION    = 82.5288
RA_OF_ASC_NODE = 118.6313
ARG_OF_PERICENTER = 356.8857
MEAN_ANOMALY   = 3.2244

EPHEMERIS_TYPE = 0
CLASSIFICATION_TYPE = U
NORAD_CAT_ID   = 17567
ELEMENT_SET_NO = 999
REV_AT_EPOCH   = 8404
BSTAR          = .54889E-4
MEAN_MOTION_DOT = .506E-5
MEAN_MOTION_DDOT = 0

CCSDS_OMM_VERS = 2.0
CREATION_DATE  = 
ORIGINATOR     = 

OBJECT_NAME    = COSMOS 1833
OBJECT_ID      = 1987-027A
CENTER_NAME    = EARTH
REF_FRAME      = TEME
TIME_SYSTEM    = UTC
MEAN_ELEMENT_THEORY = SGP/SGP4

EPOCH          = 2026-02-10T02:39:31.795488
MEAN_MOTION    = 14.13056744
ECCENTRICITY   = .0024905
INCLINATION    = 70.9216
RA_OF_ASC_NODE = 23.9787
ARG_OF_PERICENTER = 251.5158
MEAN_ANOMALY   = 108.3256

EPHEMERIS_TYPE = 0
CLASSIFICATION_TYPE = U
NORAD_CAT_ID   = 17589
ELEMENT_SET_NO = 999
REV_AT_EPOCH   = 642
BSTAR          = .45332E-4
MEAN_MOTION_DOT = .37E-6
MEAN_MOTION_DDOT = 0

CCSDS_OMM_VERS = 2.0
CREATION_DATE  = 
ORIGINATOR     = 

OBJECT_NAME    = SL-16 R/B
OBJECT_ID      = 1987-027B
CENTER_NAME    = EARTH
REF_FRAME      = TEME
TIME_SYSTEM    = UTC
MEAN_ELEMENT_THEORY = SGP/SGP4

EPOCH          = 2026-02-10T03:56:37.180608
MEAN_MOTION    = 14.17163167
ECCENTRICITY   = .0005022
INCLINATION    = 71.0049
RA_OF_ASC_NODE = 334.4964
ARG_OF_PERICENTER = 191.0133
MEAN_ANOMALY   = 169.0882

EPHEMERIS_TYPE = 0
CLASSIFICATION_TYPE = U
NORAD_CAT_ID   = 17590
ELEMENT_SET_NO = 999
REV_AT_EPOCH   = 1144
BSTAR          = -.73464E-4
MEAN_MOTION_DOT = -.196E-5
MEAN_MOTION_DDOT = 0

CCSDS_OMM_VERS = 2.0
CREATION_DATE  = 
ORIGINATOR     = 

OBJECT_NAME    = SL-14 R/B
OBJECT_ID      = 1987-038B
CENTER_NAME    = EARTH
REF_FRAME      = TEME
TIME_SYSTEM    = UTC
MEAN_ELEMENT_THEORY = SGP/SGP4

EPOCH          = 2026-02-09T21:05:42.836928
MEAN_MOTION    = 14.85341892
ECCENTRICITY   = .0017697
INCLINATION    = 82.5041
RA_OF_ASC_NODE = 323.0004
ARG_OF_PERICENTER = 255.7661
MEAN_ANOMALY   = 104.1589

EPHEMERIS_TYPE = 0
CLASSIFICATION_TYPE = U
NORAD_CAT_ID   = 17912
ELEMENT_SET_NO = 999
REV_AT_EPOCH   = 7510
BSTAR          = .63421E-4
MEAN_MOTION_DOT = .57E-5
MEAN_MOTION_DDOT = 0

CCSDS_OMM_VERS = 2.0
CREATION_DATE  = 
ORIGINATOR     = 

OBJECT_NAME    = COSMOS 1844
OBJECT_ID      = 1987-041A
CENTER_NAME    = EARTH
REF_FRAME      = TEME
TIME_SYSTEM    = UTC
MEAN_ELEMENT_THEORY = SGP/SGP4

EPOCH          = 2026-02-10T04:12:13.310784
MEAN_MOTION    = 14.14541934
ECCENTRICITY   = .0028883
INCLINATION    = 70.8980
RA_OF_ASC_NODE = 92.2143
ARG_OF_PERICENTER = 62.0131
MEAN_ANOMALY   = 298.3908

EPHEMERIS_TYPE = 0
CLASSIFICATION_TYPE = U
NORAD_CAT_ID   = 17973
ELEMENT_SET_NO = 999
REV_AT_EPOCH   = 99969
BSTAR          = .2393E-3
MEAN_MOTION_DOT = .413E-5
MEAN_MOTION_DDOT = 0

CCSDS_OMM_VERS = 2.0
CREATION_DATE  = 
ORIGINATOR     = 

OBJECT_NAME    = SL-14 R/B
OBJECT_ID      = 1987-055B
CENTER_NAME    = EARTH
REF_FRAME      = TEME
TIME_SYSTEM    = UTC
MEAN_ELEMENT_THEORY = SGP/SGP4

EPOCH          = 2026-02-09T23:53:28.041216
MEAN_MOTION    = 14.85594663
ECCENTRICITY   = .0022251
INCLINATION    = 82.4998
RA_OF_ASC_NODE = 15.1280
ARG_OF_PERICENTER = 104.0329
MEAN_ANOMALY   = 256.3363

EPHEMERIS_TYPE = 0
CLASSIFICATION_TYPE = U
NORAD_CAT_ID   = 18153
ELEMENT_SET_NO = 999
REV_AT_EPOCH   = 6582
BSTAR          = .71357E-4
MEAN_MOTION_DOT = .644E-5
MEAN_MOTION_DDOT = 0

CCSDS_OMM_VERS = 2.0
CREATION_DATE  = 
ORIGINATOR     = 

OBJECT_NAME    = COSMOS 1867
OBJECT_ID      = 1987-060A
CENTER_NAME    = EARTH
REF_FRAME      = TEME
TIME_SYSTEM    = UTC
MEAN_ELEMENT_THEORY = SGP/SGP4

EPOCH          = 2026-02-09T23:39:18.831168
MEAN_MOTION    = 14.31498524
ECCENTRICITY   = .0014116
INCLINATION    = 65.0113
RA_OF_ASC_NODE = 24.2868
ARG_OF_PERICENTER = 276.6111
MEAN_ANOMALY   = 83.3367

EPHEMERIS_TYPE = 0
CLASSIFICATION_TYPE = U
NORAD_CAT_ID   = 18187
ELEMENT_SET_NO = 999
REV_AT_EPOCH   = 1597
BSTAR          = .29497E-4
MEAN_MOTION_DOT = -.22E-6
MEAN_MOTION_DDOT = 0

CCSDS_OMM_VERS = 2.0
CREATION_DATE  = 
ORIGINATOR     = 

OBJECT_NAME    = SL-14 R/B
OBJECT_ID      = 1988-001B
CENTER_NAME    = EARTH
REF_FRAME      = TEME
TIME_SYSTEM    = UTC
MEAN_ELEMENT_THEORY = SGP/SGP4

EPOCH          = 2026-02-09T23:43:57.028800
MEAN_MOTION    = 14.85494134
ECCENTRICITY   = .0017382
INCLINATION    = 82.5108
RA_OF_ASC_NODE = 221.4145
ARG_OF_PERICENTER = 334.4747
MEAN_ANOMALY   = 25.5609

EPHEMERIS_TYPE = 0
CLASSIFICATION_TYPE = U
NORAD_CAT_ID   = 18749
ELEMENT_SET_NO = 999
REV_AT_EPOCH   = 3791
BSTAR          = .62124E-4
MEAN_MOTION_DOT = .561E-5
MEAN_MOTION_DDOT = 0

