SL-14 R/B               
1 16792U 86046B   26041.19154767  .00000488  00000+0  53448-4 0  9999
2 16792  82.4812 106.1685 0022100 321.9791  37.9863 14.85563650122325
SL-14 R/B               
1 16882U 86055B   26040.79376856  .00000651  00000+0  72169-4 0  9992
2 16882  82.5234 152.8856 0020276  66.5618  47.2760 14.85613561115222
AJISAI (EGS)            
1 16908U 86061A   26041.16756748 -.00000086  00000+0  81443-4 0  9990
2 16908  50.0076 177.9777 0011235 216.0975 201.3855 12.44515357464578
COSMOS 1812             
1 17295U 87003A   26041.05689049  .00286107  30727-4  70680-3 0  9997
2 17295  82.4769 226.9873 0001525 316.7440  43.3715 15.95920433140040
SL-14 R/B               
1 17567U 87024B   26041.16764990  .00000506  00000+0  54889-4 0  9990
2 17567  82.5288 118.6313 0018053 356.8857   3.2244 14.86105730 84049
COSMOS 1833             
1 17589U 87027A   26041.11078467  .00000037  00000+0  45332-4 0  9991
2 17589  70.9216  23.9787 0024905 251.5158 108.3256 14.13056744  6422
SL-16 R/B               
1 17590U 87027B   26041.16431922 -.00000196  00000+0 -73464-4 0  9992
2 17590  71.0049 334.4964 0005022 191.0133 169.0882 14.17163167 11446
SL-14 R/B               
1 17912U 87038B   26040.87896802  .00000570  00000+0  63421-4 0  9997
2 17912  82.5041 323.0004 0017697 255.7661 104.1589 14.85341892 75102
COSMOS 1844             
1 17973U 87041A   26041.17515406  .00000413  00000+0  23930-3 0  9996
2 17973  70.8980  92.2143 0028883  62.0131 298.3908 14.14541934999691
SL-14 R/B               
1 18153U 87055B   26040.99546344  .00000644  00000+0  71357-4 0  9999
2 18153  82.4998  15.1280 0022251 104.0329 256.3363 14.85594663 65828
COSMOS 1867             
1 18187U 87060A   26040.98563462 -.00000022  00000+0  29497-4 0  9990
2 18187  65.0113  24.2868 0014116 276.6111  83.3367 14.31498524 15973
SL-14 R/B               
1 18749U 88001B   26040.98885450  .00000561  00000+0  62124-4 0  9995
2 18749  82.5108 221.4145 0017382 334.4747  25.5609 14.85494134 37917
